CLOSE APPROACH PAIR 1A
1 50001U 24001A   24146.00000000  .00000000  00000-0  00000-0 0  9991
2 50001  51.6000  86.6000 0001000   0.0000 355.0000 15.25123456 00001
CLOSE APPROACH PAIR 1B
1 50002U 24001B   24146.00000000  .00000000  00000-0  00000-0 0  9992
2 50002  51.6000  86.6000 0001000   0.0000   5.0000 15.25123456 00002

CLOSE APPROACH PAIR 2A
1 50003U 24002A   24146.00000000  .00000000  00000-0  00000-0 0  9993
2 50003  97.6000 122.3000 0005000 270.0000  90.0000 14.50000000 00003
CLOSE APPROACH PAIR 2B
1 50004U 24002B   24146.00000000  .00000000  00000-0  00000-0 0  9994
2 50004  97.6000 122.3000 0005000 270.0000  90.5000 14.50000000 00004

CLOSE APPROACH PAIR 3A
1 50005U 24003A   24146.00000000  .00000000  00000-0  00000-0 0  9995
2 50005  28.5000 305.9000 0008000  45.0000 315.1000 13.20000000 00005
CLOSE APPROACH PAIR 3B
1 50006U 24003B   24146.00000000  .00000000  00000-0  00000-0 0  9996
2 50006  28.5000 305.9000 0008000  45.0000 315.2000 13.20000000 00006

CLOSE APPROACH PAIR 4A
1 50007U 24004A   24146.00000000  .00000000  00000-0  00000-0 0  9997
2 50007  82.3000 200.1000 0012000 100.0000 260.0000 12.10000000 00007
CLOSE APPROACH PAIR 4B
1 50008U 24004B   24146.00000000  .00000000  00000-0  00000-0 0  9998
2 50008  82.3000 200.1000 0012000 100.0000 260.1000 12.10000000 00008

DISTANT SAFE SAT 5
1 50009U 24005A   24146.00000000  .00000000  00000-0  00000-0 0  9999
2 50009  45.0000 150.0000 0001000   0.0000   0.0000 12.00000000 00009
DISTANT SAFE SAT 6
1 50010U 24006A   24146.00000000  .00000000  00000-0  00000-0 0  9990
2 50010  98.2000 300.0000 0001000   0.0000   0.0000 14.80000000 00010
DISTANT SAFE SAT 7
1 50011U 24007A   24146.00000000  .00000000  00000-0  00000-0 0  9991
2 50011   0.1000  50.0000 0001000   0.0000   0.0000 16.00000000 00011
DISTANT SAFE SAT 8
1 50012U 24008A   24146.00000000  .00000000  00000-0  00000-0 0  9992
2 50012  63.4000 220.0000 0001000   0.0000   0.0000 11.50000000 00012
